NORAD_CAT_ID,OBJECT_NAME,OBJECT_TYPE,EPOCH,MEAN_MOTION,ECCENTRICITY,INCLINATION,RA_OF_ASC_NODE,ARG_OF_PERICENTER,MEAN_ANOMALY,BSTAR,MEAN_MOTION_DOT,MEAN_MOTION_DDOT,TLE_LINE0,TLE_LINE1,TLE_LINE2,SEMIMAJOR_AXIS,PERIOD,APOGEE,PERIGEE,DECAYED
56464.0,STARLINK-6043,PAYLOAD,2023-05-16 16:00:00,15.90503312,0.0026079,70.0001,229.0608,159.1053,310.0777,-0.0029613,-0.00939065,0.00026504,0 STARLINK-6043,1 56464U 23064S   23136.66667824 -.00939065  26504-3 -29613-2 0  9997,2 56464  70.0001 229.0608 0026079 159.1053 310.0777 15.90503312  1308,6679.01,90.537,318.294,283.457,0.0
56464.0,STARLINK-6043,PAYLOAD,2023-05-16 22:00:00,15.90028099,0.0023851,69.9997,228.3365,159.363,300.631,-0.0031854,-0.00980558,0.00028578,0 STARLINK-6043,1 56464U 23064S   23136.91667824 -.00980558  28578-3 -31854-2 0  9991,2 56464  69.9997 228.3365 0023851 159.3630 300.6310 15.90028099  1334,6680.341,90.564,318.139,286.273,0.0
56464.0,STARLINK-6043,PAYLOAD,2023-05-17 22:00:00,15.88080278,0.001458,69.9993,225.4446,162.774,256.0676,-0.0036367,-0.00999024,0.00029029,0 STARLINK-6043,1 56464U 23064S   23137.91667824 -.00999024  29029-3 -36367-2 0  9996,2 56464  69.9993 225.4446 0014580 162.7740 256.0676 15.88080278  1497,6685.802,90.676,317.415,297.92,0.0
56464.0,STARLINK-6043,PAYLOAD,2023-05-18 14:00:01,15.86765996,0.0008706,69.9992,223.5211,170.074,97.4262,-0.0037836,-0.00882496,0.0,0 STARLINK-6043,1 56464U 23064S   23138.58334491 -.00882496  00000-0 -37836-2 0  9992,2 56464  69.9992 223.5211 0008706 170.0740  97.4262 15.86765996  1606,6689.494,90.751,317.183,305.535,0.0
56464.0,STARLINK-6043,PAYLOAD,2023-05-18 22:00:00,15.86130388,0.0006067,69.999,222.5607,180.7948,189.8559,-0.0040902,-0.00918583,0.0,0 STARLINK-6043,1 56464U 23064S   23138.91667824 -.00918583  00000-0 -40902-2 0  9993,2 56464  69.9990 222.5607 0006067 180.7948 189.8559 15.86130388  1301,6691.281,90.787,317.205,309.086,0.0
56464.0,STARLINK-6043,PAYLOAD,2023-05-19 06:00:00,15.85494216,0.0004234,69.9995,221.6016,198.5569,274.4581,-0.0042543,-0.00924309,0.0,0 STARLINK-6043,1 56464U 23064S   23139.25001157 -.00924309  00000-0 -42543-2 0  9998,2 56464  69.9995 221.6016 0004234 198.5569 274.4581 15.85494216  1713,6693.071,90.823,317.769,312.102,0.0
56464.0,STARLINK-6043,PAYLOAD,2023-05-19 22:00:01,15.8417912,0.0003253,69.9994,219.686,255.7431,59.7452,-0.0045026,-0.00918173,0.0,0 STARLINK-6043,1 56464U 23064S   23139.91668981 -.00918173  00000-0 -45026-2 0  9996,2 56464  69.9994 219.6860 0003253 255.7431  59.7452 15.84179120  1309,6696.774,90.899,320.818,316.461,0.0
56464.0,STARLINK-6043,PAYLOAD,2023-05-20 06:00:00,15.83487129,0.0003508,69.9998,218.7298,268.8238,146.633,-0.004183,-0.00833506,0.0,0 STARLINK-6043,1 56464U 23064S   23140.25001157 -.00833506  00000-0 -41830-2 0  9996,2 56464  69.9998 218.7298 0003508 268.8238 146.6330 15.83487129  1863,6698.725,90.939,322.94,318.24,0.0
56464.0,STARLINK-6043,PAYLOAD,2023-05-20 14:00:01,15.82723251,0.0003542,69.9994,217.7747,277.9446,236.7616,0.0017508,0.00385811,0.0,0 STARLINK-6043,1 56464U 23064S   23140.58334491  .00385811  00000-0  17508-2 0  9996,2 56464  69.9994 217.7747 0003542 277.9446 236.7616 15.82723251  1302,6700.88,90.982,325.119,320.372,0.0
56464.0,STARLINK-6043,PAYLOAD,2023-05-21 06:00:00,15.81600654,0.000388,69.9985,215.8645,267.8944,82.922,-0.0053515,-0.00961533,0.0,0 STARLINK-6043,1 56464U 23064S   23141.25001157 -.00961533  00000-0 -53515-2 0  9992,2 56464  69.9985 215.8645 0003880 267.8944  82.9220 15.81600654  2026,6704.051,91.047,328.517,323.314,0.0
56464.0,STARLINK-6043,PAYLOAD,2023-05-21 14:00:01,15.80889013,0.0003664,69.9981,214.911,276.49,171.2412,-0.0049194,-0.00864758,0.0,0 STARLINK-6043,1 56464U 23064S   23141.58334491 -.00864758  00000-0 -49194-2 0  9997,2 56464  69.9981 214.9110 0003664 276.4900 171.2412 15.80889013  1309,6706.062,91.088,330.384,325.47,0.0
56464.0,STARLINK-6043,PAYLOAD,2023-05-21 22:00:00,15.80245099,0.0003465,69.9978,213.9587,271.1951,272.6501,-0.0052451,-0.00892062,0.0,0 STARLINK-6043,1 56464U 23064S   23141.91667824 -.00892062  00000-0 -52451-2 0  9992,2 56464  69.9978 213.9587 0003465 271.1951 272.6501 15.80245099  2136,6707.884,91.125,332.073,327.425,0.0
56464.0,STARLINK-6043,PAYLOAD,2023-05-22 14:00:01,15.78939708,0.0003478,69.9981,212.0571,275.6715,98.0521,-0.0054581,-0.00876162,0.0,0 STARLINK-6043,1 56464U 23064S   23142.58334491 -.00876162  00000-0 -54581-2 0  9996,2 56464  69.9981 212.0571 0003478 275.6715  98.0521 15.78939708  2231,6711.581,91.2,335.78,331.111,0.0
56464.0,STARLINK-6043,PAYLOAD,2023-05-22 22:00:00,15.78273124,0.0003314,69.9978,211.1076,272.3123,195.187,-0.0055444,-0.00864656,0.0,0 STARLINK-6043,1 56464U 23064S   23142.91667824 -.00864656  00000-0 -55444-2 0  9996,2 56464  69.9978 211.1076 0003314 272.3123 195.1870 15.78273124  1309,6713.47,91.239,337.56,333.11,0.0
56464.0,STARLINK-6043,PAYLOAD,2023-05-23 06:00:00,15.77684256,0.0003306,69.9979,210.1596,268.8653,291.5968,-0.0063693,-0.00956771,0.0,0 STARLINK-6043,1 56464U 23064S   23143.25001157 -.00956771  00000-0 -63693-2 0  9990,2 56464  69.9979 210.1596 0003306 268.8653 291.5968 15.77684256  2340,6715.141,91.273,339.226,334.786,0.0
56464.0,STARLINK-6043,PAYLOAD,2023-05-23 22:00:00,15.76314929,0.0003449,69.9971,208.2652,269.3372,114.7696,-0.0060096,-0.00859294,0.0,0 STARLINK-6043,1 56464U 23064S   23143.91667824 -.00859294  00000-0 -60096-2 0  9998,2 56464  69.9971 208.2652 0003449 269.3372 114.7696 15.76314929  2446,6719.029,91.352,343.211,338.577,0.0
56464.0,STARLINK-6043,PAYLOAD,2023-05-24 14:00:01,15.7502465,0.0003382,69.9973,206.3744,274.3041,290.3567,-0.0064896,-0.00875039,0.0,0 STARLINK-6043,1 56464U 23064S   23144.58335648 -.00875039  00000-0 -64896-2 0  9995,2 56464  69.9973 206.3744 0003382 274.3041 290.3567 15.75024650  2552,6722.698,91.427,346.837,342.289,0.0
56464.0,STARLINK-6043,PAYLOAD,2023-05-24 22:00:00,15.74360903,0.0003534,69.9973,205.4306,268.5287,25.1448,-0.0065805,-0.00863271,0.0,0 STARLINK-6043,1 56464U 23064S   23144.91667824 -.00863271  00000-0 -65805-2 0  9992,2 56464  69.9973 205.4306 0003534 268.5287  25.1448 15.74360903  1309,6724.587,91.466,348.829,344.076,0.0
56464.0,STARLINK-6043,PAYLOAD,2023-05-25 04:00:01,15.74147871,0.0003045,69.9977,204.7234,266.2028,3.8608,0.00073419,0.00106589,0.0,0 STARLINK-6043,1 56464U 23064S   23145.16668981  .00106589  00000-0  73419-3 0  9996,2 56464  69.9977 204.7234 0003045 266.2028   3.8608 15.74147871  2646,6725.194,91.478,349.107,345.011,0.0
56464.0,STARLINK-6043,PAYLOAD,2023-05-25 12:00:00,15.73226541,0.0003512,69.9976,203.7814,272.9234,84.742,-0.0069609,-0.00868873,0.0,0 STARLINK-6043,1 56464U 23064S   23145.50001157 -.00868873  00000-0 -69609-2 0  9998,2 56464  69.9976 203.7814 0003512 272.9234  84.7420 15.73226541  2696,6727.82,91.532,352.047,347.322,0.0
56464.0,STARLINK-6043,PAYLOAD,2023-05-25 14:00:01,15.7306338,0.000346,69.9976,203.5458,274.7696,194.6993,-0.0069693,-0.00864296,0.0,0 STARLINK-6043,1 56464U 23064S   23145.58334491 -.00864296  00000-0 -69693-2 0  9994,2 56464  69.9976 203.5458 0003460 274.7696 194.6993 15.73063380  1305,6728.285,91.541,352.478,347.822,0.0
56464.0,STARLINK-6043,PAYLOAD,2023-05-25 22:00:00,15.72400232,0.0003528,69.9973,202.6045,268.8867,287.3158,-0.0071242,-0.0085932,0.0,0 STARLINK-6043,1 56464U 23064S   23145.91667824 -.00859320  00000-0 -71242-2 0  9995,2 56464  69.9973 202.6045 0003528 268.8867 287.3158 15.72400232  1306,6730.176,91.58,354.416,349.667,0.0
56464.0,STARLINK-6043,PAYLOAD,2023-05-26 06:00:00,15.71805353,0.0003721,69.9975,201.664,266.5852,15.5436,-0.008155,-0.00963798,0.0,0 STARLINK-6043,1 56464U 23064S   23146.25001157 -.00963798  00000-0 -81550-2 0  9992,2 56464  69.9975 201.6640 0003721 266.5852  15.5436 15.71805353  2811,6731.874,91.614,356.244,351.234,0.0
56464.0,STARLINK-6043,PAYLOAD,2023-05-26 14:00:01,15.71112394,0.0003722,69.9972,200.7247,274.7027,92.5952,-0.0076341,-0.00870734,0.0,0 STARLINK-6043,1 56464U 23064S   23146.58334491 -.00870734  00000-0 -76341-2 0  9997,2 56464  69.9972 200.7247 0003722 274.7027  92.5952 15.71112394  1304,6733.854,91.655,358.225,353.212,0.0
56464.0,STARLINK-6043,PAYLOAD,2023-05-26 22:00:01,15.70314142,0.0003662,69.9976,199.7862,269.6747,182.1052,-0.0046656,-0.00535575,0.0,0 STARLINK-6043,1 56464U 23064S   23146.91668981 -.00535575  00000-0 -46656-2 0  9995,2 56464  69.9976 199.7862 0003662 269.6747 182.1052 15.70314142  2923,6736.135,91.701,360.467,355.534,0.0
56464.0,STARLINK-6043,PAYLOAD,2023-05-27 06:00:02,15.69932888,0.0003593,69.9984,198.8487,268.6813,266.6586,-7.4975e-05,-9.222e-05,0.0,0 STARLINK-6043,1 56464U 23064S   23147.25002315 -.00009222  00000-0 -74975-4 0  9998,2 56464  69.9984 198.8487 0003593 268.6813 266.6586 15.69932888  2977,6737.226,91.724,361.512,356.67,0.0
56464.0,STARLINK-6043,PAYLOAD,2023-05-27 22:00:00,15.69861447,0.0003532,69.9986,196.9742,264.3083,77.6725,0.00057732,0.00069604,0.0,0 STARLINK-6043,1 56464U 23064S   23147.91667824  .00069604  00000-0  57732-3 0  9992,2 56464  69.9986 196.9742 0003532 264.3083  77.6725 15.69861447  1300,6737.43,91.728,361.675,356.916,0.0
56464.0,STARLINK-6043,PAYLOAD,2023-05-28 06:00:00,15.69942583,0.0003626,69.9987,196.0372,263.706,161.5542,-0.00015207,-0.00018473,0.0,0 STARLINK-6043,1 56464U 23064S   23148.25001157 -.00018473  00000-0 -15207-3 0  9992,2 56464  69.9987 196.0372 0003626 263.7060 161.5542 15.69942583  1304,6737.198,91.723,361.506,356.62,0.0
56464.0,STARLINK-6043,PAYLOAD,2023-05-28 14:00:01,15.69937417,0.0003538,69.9987,195.0999,266.9915,241.6292,-2.7897e-05,-3.568e-05,0.0,0 STARLINK-6043,1 56464U 23064S   23148.58334491 -.00003568  00000-0 -27897-4 0  9996,2 56464  69.9987 195.0999 0003538 266.9915 241.6292 15.69937417  3184,6737.213,91.723,361.462,356.694,0.0
56464.0,STARLINK-6043,PAYLOAD,2023-05-28 22:00:00,15.69888129,0.0003546,69.999,194.1625,260.3273,331.668,0.0002712,0.00032475,0.0,0 STARLINK-6043,1 56464U 23064S   23148.91667824  .00032475  00000-0  27120-3 0  9997,2 56464  69.9990 194.1625 0003546 260.3273 331.6680 15.69888129  1306,6737.354,91.726,361.608,356.83,0.0
